[{"OBJECT_NAME":"STARLINK-33678","OBJECT_ID":"2025-071S","EPOCH":"2026-03-09T12:32:56.984928","MEAN_MOTION":15.30192299,"ECCENTRICITY":0.00010644,"INCLINATION":53.16,"RA_OF_ASC_NODE":140.7135,"ARG_OF_PERICENTER":61.6042,"MEAN_ANOMALY":298.5066,"EPHEMERIS_TYPE":0,"CLASSIFICATION_TYPE":"U","NORAD_CAT_ID":63509,"ELEMENT_SET_NO":999,"REV_AT_EPOCH":5247,"BSTAR":0.00076480454,"MEAN_MOTION_DOT":0.00022355,"MEAN_MOTION_DDOT":0},{"OBJECT_NAME":"CZ-4 DEB","OBJECT_ID":"2003-049H","EPOCH":"2026-03-08T08:27:28.944576","MEAN_MOTION":15.27137095,"ECCENTRICITY":0.00307627,"INCLINATION":98.6284,"RA_OF_ASC_NODE":272.5918,"ARG_OF_PERICENTER":169.0311,"MEAN_ANOMALY":191.1601,"EPHEMERIS_TYPE":0,"CLASSIFICATION_TYPE":"U","NORAD_CAT_ID":35381,"ELEMENT_SET_NO":999,"REV_AT_EPOCH":18390,"BSTAR":0.0032047887,"MEAN_MOTION_DOT":0.00087287,"MEAN_MOTION_DDOT":0}]
